{"type": "FeatureCollection", "features": [ {"type": "Feature", "properties": {"norad_id": 66577, "name": "STARLINK-35815", "group": "last-30-days", "lat": 40.4747039951357, "lon": -105.20787981841448, "alt_km": 410.53863892228674, "timestamp": "2025-12-09T07:41:31.973011+00:00", "meta": {"OBJECT_NAME": "STARLINK-35815", "OBJECT_ID": "2025-268W", "EPOCH": "2025-12-08T22:00:03.000096", "MEAN_MOTION": 15.51669728, "ECCENTRICITY": 0.00018157, "INCLINATION": 43.0004, "RA_OF_ASC_NODE": 143.4632, "ARG_OF_PERICENTER": 260.5637, "MEAN_ANOMALY": 109.8338, "EPHEMERIS_TYPE": 0, "CLASSIFICATION_TYPE": "U", "NORAD_CAT_ID": 66577, "ELEMENT_SET_NO": 999, "REV_AT_EPOCH": 405, "BSTAR": -0.028158382, "MEAN_MOTION_DOT": -0.01550983, "MEAN_MOTION_DDOT": 0}, "tle": {"line1": "1 66577U 25268W   25342.91670139 -.01550983  00000+0 -28158-1 0  9993", "line2": "2 66577  43.0004 143.4632 0001815 260.5637 109.8338 15.51669728  4052"}}, "geometry": {"type": "Point", "coordinates": [-105.20787981841448, 40.4747039951357]}}, {"type": "Feature", "properties": {"norad_id": 66578, "name": "STARLINK-35743", "group": "last-30-days", "lat": 39.923848942305526, "lon": -102.80603550548751, "alt_km": 410.6132385806459, "timestamp": "2025-12-09T07:41:31.973021+00:00", "meta": {"OBJECT_NAME": "STARLINK-35743", "OBJECT_ID": "2025-268X", "EPOCH": "2025-12-08T22:00:03.000096", "MEAN_MOTION": 15.51669162, "ECCENTRICITY": 0.00017937, "INCLINATION": 43.0003, "RA_OF_ASC_NODE": 143.4583, "ARG_OF_PERICENTER": 262.2132, "MEAN_ANOMALY": 110.1021, "EPHEMERIS_TYPE": 0, "CLASSIFICATION_TYPE": "U", "NORAD_CAT_ID": 66578, "ELEMENT_SET_NO": 999, "REV_AT_EPOCH": 405, "BSTAR": -0.028176743, "MEAN_MOTION_DOT": -0.01551859, "MEAN_MOTION_DDOT": 0}, "tle": {"line1": "1 66578U 25268X   25342.91670139 -.01551859  00000+0 -28177-1 0  9998", "line2": "2 66578  43.0003 143.4583 0001793 262.2132 110.1021 15.51669162  4057"}}, "geometry": {"type": "Point", "coordinates": [-102.80603550548751, 39.923848942305526]}}, {"type": "Feature", "properties": {"norad_id": 66579, "name": "STARLINK-35868", "group": "last-30-days", "lat": 39.32528077389379, "lon": -100.44748420180635, "alt_km": 410.78742611993766, "timestamp": "2025-12-09T07:41:31.973031+00:00", "meta": {"OBJECT_NAME": "STARLINK-35868", "OBJECT_ID": "2025-268Y", "EPOCH": "2025-12-08T22:00:03.000096", "MEAN_MOTION": 15.51667259, "ECCENTRICITY": 0.00019832, "INCLINATION": 43.0005, "RA_OF_ASC_NODE": 143.4537, "ARG_OF_PERICENTER": 262.4106, "MEAN_ANOMALY": 111.8165, "EPHEMERIS_TYPE": 0, "CLASSIFICATION_TYPE": "U", "NORAD_CAT_ID": 66579, "ELEMENT_SET_NO": 999, "REV_AT_EPOCH": 405, "BSTAR": -0.028003322, "MEAN_MOTION_DOT": -0.01543205, "MEAN_MOTION_DDOT": 0}, "tle": {"line1": "1 66579U 25268Y   25342.91670139 -.01543205  00000+0 -28003-1 0  9993", "line2": "2 66579  43.0005 143.4537 0001983 262.4106 111.8165 15.51667259  4055"}}, "geometry": {"type": "Point", "coordinates": [-100.44748420180635, 39.32528077389379]}}, {"type": "Feature", "properties": {"norad_id": 66580, "name": "STARLINK-35872", "group": "last-30-days", "lat": 38.6782265583644, "lon": -98.12655703996501, "alt_km": 410.73772089080103, "timestamp": "2025-12-09T07:41:31.973043+00:00", "meta": {"OBJECT_NAME": "STARLINK-35872", "OBJECT_ID": "2025-268Z", "EPOCH": "2025-12-08T22:00:03.000096", "MEAN_MOTION": 15.51670573, "ECCENTRICITY": 0.00018297, "INCLINATION": 43.0003, "RA_OF_ASC_NODE": 143.4492, "ARG_OF_PERICENTER": 258.2816, "MEAN_ANOMALY": 117.8676, "EPHEMERIS_TYPE": 0, "CLASSIFICATION_TYPE": "U", "NORAD_CAT_ID": 66580, "ELEMENT_SET_NO": 999, "REV_AT_EPOCH": 405, "BSTAR": -0.028246572, "MEAN_MOTION_DOT": -0.01555423, "MEAN_MOTION_DDOT": 0}, "tle": {"line1": "1 66580U 25268Z   25342.91670139 -.01555423  00000+0 -28247-1 0  9990", "line2": "2 66580  43.0003 143.4492 0001829 258.2816 117.8676 15.51670573  4051"}}, "geometry": {"type": "Point", "coordinates": [-98.12655703996501, 38.6782265583644]}}, {"type": "Feature", "properties": {"norad_id": 66581, "name": "STARLINK-35744", "group": "last-30-days", "lat": 37.98685470913354, "lon": -95.85188226035406, "alt_km": 410.88600703959037, "timestamp": "2025-12-09T07:41:31.973053+00:00", "meta": {"OBJECT_NAME": "STARLINK-35744", "OBJECT_ID": "2025-268AA", "EPOCH": "2025-12-08T22:00:03.000096", "MEAN_MOTION": 15.5166761, "ECCENTRICITY": 0.00019278, "INCLINATION": 43.0004, "RA_OF_ASC_NODE": 143.4434, "ARG_OF_PERICENTER": 259.2308, "MEAN_ANOMALY": 118.8355, "EPHEMERIS_TYPE": 0, "CLASSIFICATION_TYPE": "U", "NORAD_CAT_ID": 66581, "ELEMENT_SET_NO": 999, "REV_AT_EPOCH": 400, "BSTAR": -0.028150806, "MEAN_MOTION_DOT": -0.01550548, "MEAN_MOTION_DDOT": 0}, "tle": {"line1": "1 66581U 25268AA  25342.91670139 -.01550548  00000+0 -28151-1 0  9998", "line2": "2 66581  43.0004 143.4434 0001927 259.2308 118.8355 15.51667610  4003"}}, "geometry": {"type": "Point", "coordinates": [-95.85188226035406, 37.98685470913354]}}, {"type": "Feature", "properties": {"norad_id": 66582, "name": "STARLINK-35746", "group": "last-30-days", "lat": 37.25151167798156, "lon": -93.61848198373794, "alt_km": 410.9632746380994, "timestamp": "2025-12-09T07:41:31.973065+00:00", "meta": {"OBJECT_NAME": "STARLINK-35746", "OBJECT_ID": "2025-268AB", "EPOCH": "2025-12-08T22:00:03.000096", "MEAN_MOTION": 15.51667262, "ECCENTRICITY": 0.00018787, "INCLINATION": 43.0003, "RA_OF_ASC_NODE": 143.4385, "ARG_OF_PERICENTER": 259.8066, "MEAN_ANOMALY": 120.179, "EPHEMERIS_TYPE": 0, "CLASSIFICATION_TYPE": "U", "NORAD_CAT_ID": 66582, "ELEMENT_SET_NO": 999, "REV_AT_EPOCH": 405, "BSTAR": -0.028203576, "MEAN_MOTION_DOT": -0.01553136, "MEAN_MOTION_DDOT": 0}, "tle": {"line1": "1 66582U 25268AB  25342.91670139 -.01553136  00000+0 -28204-1 0  9994", "line2": "2 66582  43.0003 143.4385 0001878 259.8066 120.1790 15.51667262  4057"}}, "geometry": {"type": "Point", "coordinates": [-93.61848198373794, 37.25151167798156]}}, {"type": "Feature", "properties": {"norad_id": 66583, "name": "STARLINK-35941", "group": "last-30-days", "lat": 36.475573956938725, "lon": -91.43063146389846, "alt_km": 411.1023279738456, "timestamp": "2025-12-09T07:41:31.973080+00:00", "meta": {"OBJECT_NAME": "STARLINK-35941", "OBJECT_ID": "2025-268AC", "EPOCH": "2025-12-08T22:00:03.000096", "MEAN_MOTION": 15.51663029, "ECCENTRICITY": 0.0001936, "INCLINATION": 43.0004, "RA_OF_ASC_NODE": 143.4339, "ARG_OF_PERICENTER": 260.9277, "MEAN_ANOMALY": 120.9756, "EPHEMERIS_TYPE": 0, "CLASSIFICATION_TYPE": "U", "NORAD_CAT_ID": 66583, "ELEMENT_SET_NO": 999, "REV_AT_EPOCH": 405, "BSTAR": -0.02807307, "MEAN_MOTION_DOT": -0.01546447, "MEAN_MOTION_DDOT": 0}, "tle": {"line1": "1 66583U 25268AC  25342.91670139 -.01546447  00000+0 -28073-1 0  9996", "line2": "2 66583  43.0004 143.4339 0001936 260.9277 120.9756 15.51663029  4057"}}, "geometry": {"type": "Point", "coordinates": [-91.43063146389846, 36.475573956938725]}}, {"type": "Feature", "properties": {"norad_id": 66584, "name": "STARLINK-35939", "group": "last-30-days", "lat": 35.66079241936686, "lon": -89.28819064459525, "alt_km": 411.2358544275394, "timestamp": "2025-12-09T07:41:31.973090+00:00", "meta": {"OBJECT_NAME": "STARLINK-35939", "OBJECT_ID": "2025-268AD", "EPOCH": "2025-12-08T22:00:03.000096", "MEAN_MOTION": 15.51661279, "ECCENTRICITY": 0.00020245, "INCLINATION": 43.0005, "RA_OF_ASC_NODE": 143.4296, "ARG_OF_PERICENTER": 260.4551, "MEAN_ANOMALY": 123.364, "EPHEMERIS_TYPE": 0, "CLASSIFICATION_TYPE": "U", "NORAD_CAT_ID": 66584, "ELEMENT_SET_NO": 999, "REV_AT_EPOCH": 405, "BSTAR": -0.027994094, "MEAN_MOTION_DOT": -0.01542462, "MEAN_MOTION_DDOT": 0}, "tle": {"line1": "1 66584U 25268AD  25342.91670139 -.01542462  00000+0 -27994-1 0  9991", "line2": "2 66584  43.0005 143.4296 0002024 260.4551 123.3640 15.51661279  4054"}}, "geometry": {"type": "Point", "coordinates": [-89.28819064459525, 35.66079241936686]}}, {"type": "Feature", "properties": {"norad_id": 66585, "name": "STARLINK-35963", "group": "last-30-days", "lat": 34.80478411429193, "lon": -87.18123179091742, "alt_km": 411.3885578402833, "timestamp": "2025-12-09T07:41:31.973102+00:00", "meta": {"OBJECT_NAME": "STARLINK-35963", "OBJECT_ID": "2025-268AE", "EPOCH": "2025-12-08T22:00:03.000096", "MEAN_MOTION": 15.51663285, "ECCENTRICITY": 0.00018883, "INCLINATION": 43.0007, "RA_OF_ASC_NODE": 143.4246, "ARG_OF_PERICENTER": 268.2197, "MEAN_ANOMALY": 117.5168, "EPHEMERIS_TYPE": 0, "CLASSIFICATION_TYPE": "U", "NORAD_CAT_ID": 66585, "ELEMENT_SET_NO": 999, "REV_AT_EPOCH": 405, "BSTAR": -0.027995961, "MEAN_MOTION_DOT": -0.01542594, "MEAN_MOTION_DDOT": 0}, "tle": {"line1": "1 66585U 25268AE  25342.91670139 -.01542594  00000+0 -27996-1 0  9990", "line2": "2 66585  43.0007 143.4246 0001888 268.2197 117.5168 15.51663285  4050"}}, "geometry": {"type": "Point", "coordinates": [-87.18123179091742, 34.80478411429193]}}, {"type": "Feature", "properties": {"norad_id": 66586, "name": "TJS-21", "group": "last-30-days", "lat": 50.20754393610324, "lon": -160.05631128340045, "alt_km": 28131.15581022308, "timestamp": "2025-12-09T07:41:31.973115+00:00", "meta": {"OBJECT_NAME": "TJS-21", "OBJECT_ID": "2025-269A", "EPOCH": "2025-12-07T17:43:38.148672", "MEAN_MOTION": 2.00608507, "ECCENTRICITY": 0.6806665, "INCLINATION": 63.2904, "RA_OF_ASC_NODE": 162.9189, "ARG_OF_PERICENTER": 269.7757, "MEAN_ANOMALY": 18.6616, "EPHEMERIS_TYPE": 0, "CLASSIFICATION_TYPE": "U", "NORAD_CAT_ID": 66586, "ELEMENT_SET_NO": 999, "REV_AT_EPOCH": 33, "BSTAR": 3.2363, "MEAN_MOTION_DOT": 1.641e-05, "MEAN_MOTION_DDOT": 0}, "tle": {"line1": "1 66586U 25269A   25341.73863598  .00001641  00000+0  32363+1 0  9997", "line2": "2 66586  63.2904 162.9189 6806665 269.7757  18.6616  2.00608507   335"}}, "geometry": {"type": "Point", "coordinates": [-160.05631128340045, 50.20754393610324]}}]}